2024-166B               
1 61180U 24166B   26067.67341263  .00038147  00000+0  25198-3 0  9998
2 61180  96.6921 322.5475 0002182 351.2198   8.9031 15.75502359 84916
STARLINK-11607 [DTC]    
1 63140U 25043J   26068.55335730  .00361436  00000+0  26782-2 0  9990
2 63140  43.0002 251.2715 0003314 260.0072 100.0422 15.71028221 59457
